[{"OBJECT_NAME":"CHUANGXIN 1-02 (CX-1-02)","OBJECT_ID":"2008-056B","EPOCH":"2026-03-09T22:48:06.707232","MEAN_MOTION":14.30130448,"ECCENTRICITY":0.00153994,"INCLINATION":98.625,"RA_OF_ASC_NODE":96.1592,"ARG_OF_PERICENTER":73.2963,"MEAN_ANOMALY":286.9908,"EPHEMERIS_TYPE":0,"CLASSIFICATION_TYPE":"U","NORAD_CAT_ID":33434,"ELEMENT_SET_NO":999,"REV_AT_EPOCH":90443,"BSTAR":1.1632331e-5,"MEAN_MOTION_DOT":-1.4e-7,"MEAN_MOTION_DDOT":0},{"OBJECT_NAME":"FENGYUN 1C DEB","OBJECT_ID":"1999-025BGJ","EPOCH":"2026-03-07T16:00:26.445600","MEAN_MOTION":14.29457369,"ECCENTRICITY":0.0030693,"INCLINATION":99.4011,"RA_OF_ASC_NODE":138.5053,"ARG_OF_PERICENTER":175.1764,"MEAN_ANOMALY":340.1215,"EPHEMERIS_TYPE":0,"CLASSIFICATION_TYPE":"U","NORAD_CAT_ID":31088,"ELEMENT_SET_NO":999,"REV_AT_EPOCH":97762,"BSTAR":0.0019234,"MEAN_MOTION_DOT":4.887e-5,"MEAN_MOTION_DDOT":0}]
